[{"OBJECT_NAME":"STARLINK-2251","OBJECT_ID":"2021-041AT","EPOCH":"2026-03-09T08:22:16.294944","MEAN_MOTION":15.06402763,"ECCENTRICITY":0.00015187,"INCLINATION":53.0549,"RA_OF_ASC_NODE":113.2361,"ARG_OF_PERICENTER":88.7145,"MEAN_ANOMALY":271.4018,"EPHEMERIS_TYPE":0,"CLASSIFICATION_TYPE":"U","NORAD_CAT_ID":48594,"ELEMENT_SET_NO":999,"REV_AT_EPOCH":26543,"BSTAR":0.00012513479,"MEAN_MOTION_DOT":1.583e-5,"MEAN_MOTION_DDOT":0},{"OBJECT_NAME":"CZ-6A DEB","OBJECT_ID":"2024-126C","EPOCH":"2026-03-09T22:45:09.534528","MEAN_MOTION":15.08339588,"ECCENTRICITY":0.00034995,"INCLINATION":97.8272,"RA_OF_ASC_NODE":88.0703,"ARG_OF_PERICENTER":249.9832,"MEAN_ANOMALY":110.1019,"EPHEMERIS_TYPE":0,"CLASSIFICATION_TYPE":"U","NORAD_CAT_ID":60213,"ELEMENT_SET_NO":999,"REV_AT_EPOCH":9177,"BSTAR":0.0010886629,"MEAN_MOTION_DOT":0.00016868,"MEAN_MOTION_DDOT":0}]
